[{"OBJECT_NAME":"STARLINK-6233","OBJECT_ID":"2023-094M","EPOCH":"2026-03-09T22:00:01.999584","MEAN_MOTION":15.14468056,"ECCENTRICITY":4.951e-5,"INCLINATION":43.0008,"RA_OF_ASC_NODE":28.6996,"ARG_OF_PERICENTER":290.179,"MEAN_ANOMALY":255.2112,"EPHEMERIS_TYPE":0,"CLASSIFICATION_TYPE":"U","NORAD_CAT_ID":57229,"ELEMENT_SET_NO":999,"REV_AT_EPOCH":577,"BSTAR":0.0040861784,"MEAN_MOTION_DOT":0.00077118,"MEAN_MOTION_DDOT":0},{"OBJECT_NAME":"FALCON 9 DEB","OBJECT_ID":"2021-041BH","EPOCH":"2026-03-09T15:22:42.897792","MEAN_MOTION":15.1290094,"ECCENTRICITY":0.0010029,"INCLINATION":53.0279,"RA_OF_ASC_NODE":186.1166,"ARG_OF_PERICENTER":187.1036,"MEAN_ANOMALY":172.9815,"EPHEMERIS_TYPE":0,"CLASSIFICATION_TYPE":"U","NORAD_CAT_ID":48608,"ELEMENT_SET_NO":999,"REV_AT_EPOCH":26435,"BSTAR":0.00033747,"MEAN_MOTION_DOT":5.718e-5,"MEAN_MOTION_DDOT":0}]
